{
    "links": {
        "self": "http://www.neowsapp.com/rest/v1/neo/3739081?api_key=iIulBulltgU6a56xZRHN4H3l9WmuAYTsLGpBGhQ2"
    },
    "id": "3739081",
    "neo_reference_id": "3739081",
    "name": "(2015 YQ10)",
    "designation": "2015 YQ10",
    "nasa_jpl_url": "http://ssd.jpl.nasa.gov/sbdb.cgi?sstr=3739081",
    "absolute_magnitude_h": 27.0,
    "estimated_diameter": {
        "kilometers": {
            "estimated_diameter_min": 0.0105816886,
            "estimated_diameter_max": 0.023661375
        },
        "meters": {
            "estimated_diameter_min": 10.5816885933,
            "estimated_diameter_max": 23.6613750114
        },
        "miles": {
            "estimated_diameter_min": 0.0065751544,
            "estimated_diameter_max": 0.0147024923
        },
        "feet": {
            "estimated_diameter_min": 34.7168272045,
            "estimated_diameter_max": 77.6291855923
        }
    },
    "is_potentially_hazardous_asteroid": false,
    "close_approach_data": [
        {
            "close_approach_date": "2002-01-08",
            "close_approach_date_full": "2002-Jan-08 19:19",
            "epoch_date_close_approach": 1010517540000,
            "relative_velocity": {
                "kilometers_per_second": "15.9056668542",
                "kilometers_per_hour": "57260.4006752186",
                "miles_per_hour": "35579.3861862213"
            },
            "miss_distance": {
                "astronomical": "0.3507146185",
                "lunar": "136.4279865965",
                "kilometers": "52466159.905462595",
                "miles": "32600960.038650011"
            },
            "orbiting_body": "Earth"
        },
        {
            "close_approach_date": "2008-12-29",
            "close_approach_date_full": "2008-Dec-29 12:59",
            "epoch_date_close_approach": 1230555540000,
            "relative_velocity": {
                "kilometers_per_second": "11.6131071246",
                "kilometers_per_hour": "41807.1856485622",
                "miles_per_hour": "25977.3593270191"
            },
            "miss_distance": {
                "astronomical": "0.1688611604",
                "lunar": "65.6869913956",
                "kilometers": "25261269.921568348",
                "miles": "15696625.2670772824"
            },
            "orbiting_body": "Earth"
        },
        {
            "close_approach_date": "2015-12-19",
            "close_approach_date_full": "2015-Dec-19 21:25",
            "epoch_date_close_approach": 1450560300000,
            "relative_velocity": {
                "kilometers_per_second": "8.9904859719",
                "kilometers_per_hour": "32365.7494990121",
                "miles_per_hour": "20110.81807065"
            },
            "miss_distance": {
                "astronomical": "0.0163833726",
                "lunar": "6.3731319414",
                "kilometers": "2450917.644376362",
                "miles": "1522929.6050313156"
            },
            "orbiting_body": "Earth"
        }
    ],
    "orbital_data": {
        "orbit_id": "3",
        "orbit_determination_date": "2017-04-06 08:29:32",
        "first_observation_date": "2015-12-21",
        "last_observation_date": "2015-12-22",
        "data_arc_in_days": 1,
        "observations_used": 18,
        "orbit_uncertainty": "7",
        "minimum_orbit_intersection": ".0159225",
        "jupiter_tisserand_invariant": "5.088",
        "epoch_osculation": "2459000.5",
        "eccentricity": ".2150016692639452",
        "semi_major_axis": "1.249674026963867",
        "inclination": "15.00243139838126",
        "ascending_node_longitude": "268.1273133897146",
        "orbital_period": "510.2623704803842",
        "perihelion_distance": ".9809920251308389",
        "perihelion_argument": "152.9976854419704",
        "aphelion_distance": "1.518356028796894",
        "perihelion_time": "2458883.672107572185",
        "mean_anomaly": "82.42434423376768",
        "mean_motion": ".705519397131087",
        "equinox": "J2000",
        "orbit_class": {
            "orbit_class_type": "APO",
            "orbit_class_description": "Near-Earth asteroid orbits which cross the Earth’s orbit similar to that of 1862 Apollo",
            "orbit_class_range": "a (semi-major axis) > 1.0 AU; q (perihelion) < 1.017 AU"
        }
    },
    "is_sentry_object": false
}